{"type": "FeatureCollection", "features": [ {"type": "Feature", "properties": {"norad_id": 37216, "name": "COSMO-SKYMED 4", "group": "resource", "lat": 15.23920263597136, "lon": -16.622606010763146, "alt_km": 623.2549628686511, "timestamp": "2025-12-05T18:53:12.953607+00:00", "meta": {"OBJECT_NAME": "COSMO-SKYMED 4", "OBJECT_ID": "2010-060A", "EPOCH": "2025-12-05T06:48:19.766304", "MEAN_MOTION": 14.82154316, "ECCENTRICITY": 0.00013786, "INCLINATION": 97.8808, "RA_OF_ASC_NODE": 160.7192, "ARG_OF_PERICENTER": 82.9921, "MEAN_ANOMALY": 277.1449, "EPHEMERIS_TYPE": 0, "CLASSIFICATION_TYPE": "U", "NORAD_CAT_ID": 37216, "ELEMENT_SET_NO": 999, "REV_AT_EPOCH": 81584, "BSTAR": 0.00014271803, "MEAN_MOTION_DOT": 1.084e-05, "MEAN_MOTION_DDOT": 0}, "tle": {"line1": "1 37216U 10060A   25339.28356211  .00001084  00000+0  14272-3 0  9997", "line2": "2 37216  97.8808 160.7192 0001378  82.9921 277.1449 14.82154316815842"}}, "geometry": {"type": "Point", "coordinates": [-16.622606010763146, 15.23920263597136]}}, {"type": "Feature", "properties": {"norad_id": 37387, "name": "RESOURCESAT-2", "group": "resource", "lat": -22.675600386765094, "lon": -140.33631815959743, "alt_km": 829.1502591941917, "timestamp": "2025-12-05T18:53:12.953617+00:00", "meta": {"OBJECT_NAME": "RESOURCESAT-2", "OBJECT_ID": "2011-015A", "EPOCH": "2025-12-05T06:06:42.585984", "MEAN_MOTION": 14.21592689, "ECCENTRICITY": 0.00067207, "INCLINATION": 98.7887, "RA_OF_ASC_NODE": 42.8398, "ARG_OF_PERICENTER": 61.9166, "MEAN_ANOMALY": 298.269, "EPHEMERIS_TYPE": 0, "CLASSIFICATION_TYPE": "U", "NORAD_CAT_ID": 37387, "ELEMENT_SET_NO": 999, "REV_AT_EPOCH": 75862, "BSTAR": 0.00017564407, "MEAN_MOTION_DOT": 3.41e-06, "MEAN_MOTION_DDOT": 0}, "tle": {"line1": "1 37387U 11015A   25339.25465956  .00000341  00000+0  17564-3 0  9993", "line2": "2 37387  98.7887  42.8398 0006720  61.9166 298.2690 14.21592689758626"}}, "geometry": {"type": "Point", "coordinates": [-140.33631815959743, -22.675600386765094]}}, {"type": "Feature", "properties": {"norad_id": 37781, "name": "HAIYANG-2A", "group": "resource", "lat": -58.07991386936516, "lon": 145.5135384466864, "alt_km": 976.0595731468093, "timestamp": "2025-12-05T18:53:12.953627+00:00", "meta": {"OBJECT_NAME": "HAIYANG-2A", "OBJECT_ID": "2011-043A", "EPOCH": "2025-12-05T07:16:51.472128", "MEAN_MOTION": 13.78834461, "ECCENTRICITY": 0.0001649, "INCLINATION": 99.3377, "RA_OF_ASC_NODE": 340.3525, "ARG_OF_PERICENTER": 94.7219, "MEAN_ANOMALY": 265.4121, "EPHEMERIS_TYPE": 0, "CLASSIFICATION_TYPE": "U", "NORAD_CAT_ID": 37781, "ELEMENT_SET_NO": 999, "REV_AT_EPOCH": 71996, "BSTAR": 5.9933426e-05, "MEAN_MOTION_DOT": 1.7e-07, "MEAN_MOTION_DDOT": 0}, "tle": {"line1": "1 37781U 11043A   25339.30337352  .00000017  00000+0  59933-4 0  9993", "line2": "2 37781  99.3377 340.3525 0001649  94.7219 265.4121 13.78834461719968"}}, "geometry": {"type": "Point", "coordinates": [145.5135384466864, -58.07991386936516]}}, {"type": "Feature", "properties": {"norad_id": 37791, "name": "RASAT", "group": "resource", "lat": -68.38374559427292, "lon": 90.11619185407882, "alt_km": 689.1521767324593, "timestamp": "2025-12-05T18:53:12.953637+00:00", "meta": {"OBJECT_NAME": "RASAT", "OBJECT_ID": "2011-044D", "EPOCH": "2025-12-05T06:29:56.904864", "MEAN_MOTION": 14.67893289, "ECCENTRICITY": 0.00219475, "INCLINATION": 98.0655, "RA_OF_ASC_NODE": 68.6394, "ARG_OF_PERICENTER": 87.5241, "MEAN_ANOMALY": 356.7864, "EPHEMERIS_TYPE": 0, "CLASSIFICATION_TYPE": "U", "NORAD_CAT_ID": 37791, "ELEMENT_SET_NO": 999, "REV_AT_EPOCH": 76473, "BSTAR": 0.00022826419, "MEAN_MOTION_DOT": 1.261e-05, "MEAN_MOTION_DDOT": 0}, "tle": {"line1": "1 37791U 11044D   25339.27079751  .00001261  00000+0  22826-3 0  9999", "line2": "2 37791  98.0655  68.6394 0021947  87.5241 356.7864 14.67893289764731"}}, "geometry": {"type": "Point", "coordinates": [90.11619185407882, -68.38374559427292]}}, {"type": "Feature", "properties": {"norad_id": 37841, "name": "SRMSAT", "group": "resource", "lat": -15.611493653607516, "lon": 99.73360628879509, "alt_km": 851.0233020179139, "timestamp": "2025-12-05T18:53:12.953648+00:00", "meta": {"OBJECT_NAME": "SRMSAT", "OBJECT_ID": "2011-058D", "EPOCH": "2025-12-04T16:21:06.385824", "MEAN_MOTION": 14.11507205, "ECCENTRICITY": 0.0011717, "INCLINATION": 19.9698, "RA_OF_ASC_NODE": 156.7245, "ARG_OF_PERICENTER": 224.0627, "MEAN_ANOMALY": 213.4569, "EPHEMERIS_TYPE": 0, "CLASSIFICATION_TYPE": "U", "NORAD_CAT_ID": 37841, "ELEMENT_SET_NO": 999, "REV_AT_EPOCH": 73030, "BSTAR": 0.00015376, "MEAN_MOTION_DOT": 5.48e-06, "MEAN_MOTION_DDOT": 0}, "tle": {"line1": "1 37841U 11058D   25338.68132391  .00000548  00000+0  15376-3 0  9993", "line2": "2 37841  19.9698 156.7245 0011717 224.0627 213.4569 14.11507205730306"}}, "geometry": {"type": "Point", "coordinates": [99.73360628879509, -15.611493653607516]}}, {"type": "Feature", "properties": {"norad_id": 38012, "name": "PLEIADES 1A", "group": "resource", "lat": -40.66588427499611, "lon": 59.7638368762187, "alt_km": 704.8840091430739, "timestamp": "2025-12-05T18:53:12.953658+00:00", "meta": {"OBJECT_NAME": "PLEIADES 1A", "OBJECT_ID": "2011-076F", "EPOCH": "2025-12-05T06:19:31.482912", "MEAN_MOTION": 14.58550333, "ECCENTRICITY": 0.0001381, "INCLINATION": 98.1832, "RA_OF_ASC_NODE": 52.1473, "ARG_OF_PERICENTER": 80.4562, "MEAN_ANOMALY": 11.8659, "EPHEMERIS_TYPE": 0, "CLASSIFICATION_TYPE": "U", "NORAD_CAT_ID": 38012, "ELEMENT_SET_NO": 999, "REV_AT_EPOCH": 74372, "BSTAR": 0.00019350762, "MEAN_MOTION_DOT": 8.54e-06, "MEAN_MOTION_DDOT": 0}, "tle": {"line1": "1 38012U 11076F   25339.26355883  .00000854  00000+0  19351-3 0  9999", "line2": "2 38012  98.1832  52.1473 0001381  80.4562  11.8659 14.58550333743727"}}, "geometry": {"type": "Point", "coordinates": [59.7638368762187, -40.66588427499611]}}, {"type": "Feature", "properties": {"norad_id": 38038, "name": "ZIYUAN 1-02C (ZY 1-02C)", "group": "resource", "lat": 19.861185117441632, "lon": 42.8562119023749, "alt_km": 768.7764954784507, "timestamp": "2025-12-05T18:53:12.953669+00:00", "meta": {"OBJECT_NAME": "ZIYUAN 1-02C (ZY 1-02C)", "OBJECT_ID": "2011-079A", "EPOCH": "2025-12-05T07:30:42.596064", "MEAN_MOTION": 14.37999415, "ECCENTRICITY": 0.0006867, "INCLINATION": 98.4344, "RA_OF_ASC_NODE": 45.4634, "ARG_OF_PERICENTER": 159.059, "MEAN_ANOMALY": 288.9981, "EPHEMERIS_TYPE": 0, "CLASSIFICATION_TYPE": "U", "NORAD_CAT_ID": 38038, "ELEMENT_SET_NO": 999, "REV_AT_EPOCH": 73134, "BSTAR": 0.00033786436, "MEAN_MOTION_DOT": 9.79e-06, "MEAN_MOTION_DDOT": 0}, "tle": {"line1": "1 38038U 11079A   25339.31299301  .00000979  00000+0  33786-3 0  9994", "line2": "2 38038  98.4344  45.4634 0006867 159.0590 288.9981 14.37999415731343"}}, "geometry": {"type": "Point", "coordinates": [42.8562119023749, 19.861185117441632]}}, {"type": "Feature", "properties": {"norad_id": 38046, "name": "ZIYUAN 3-1 (ZY 3-1)", "group": "resource", "lat": 9.961054253354959, "lon": -132.68300261004006, "alt_km": 369.6748839355769, "timestamp": "2025-12-05T18:53:12.953679+00:00", "meta": {"OBJECT_NAME": "ZIYUAN 3-1 (ZY 3-1)", "OBJECT_ID": "2012-001A", "EPOCH": "2025-12-05T07:26:16.389024", "MEAN_MOTION": 15.67184414, "ECCENTRICITY": 0.00020633, "INCLINATION": 97.1772, "RA_OF_ASC_NODE": 45.5614, "ARG_OF_PERICENTER": 24.1219, "MEAN_ANOMALY": 336.0138, "EPHEMERIS_TYPE": 0, "CLASSIFICATION_TYPE": "U", "NORAD_CAT_ID": 38046, "ELEMENT_SET_NO": 999, "REV_AT_EPOCH": 77380, "BSTAR": 0.000860306, "MEAN_MOTION_DOT": 0.00092785, "MEAN_MOTION_DDOT": 0}, "tle": {"line1": "1 38046U 12001A   25339.30991191  .00092785  00000+0  86031-3 0  9991", "line2": "2 38046  97.1772  45.5614 0002063  24.1219 336.0138 15.67184414773801"}}, "geometry": {"type": "Point", "coordinates": [-132.68300261004006, 9.961054253354959]}}, {"type": "Feature", "properties": {"norad_id": 38338, "name": "ARIRANG-3 (KOMPSAT-3)", "group": "resource", "lat": 41.77738919033464, "lon": 121.8466933569483, "alt_km": 687.3351958327166, "timestamp": "2025-12-05T18:53:12.953689+00:00", "meta": {"OBJECT_NAME": "ARIRANG-3 (KOMPSAT-3)", "OBJECT_ID": "2012-025B", "EPOCH": "2025-12-05T06:45:34.199712", "MEAN_MOTION": 14.61697087, "ECCENTRICITY": 0.00058894, "INCLINATION": 98.3311, "RA_OF_ASC_NODE": 293.8153, "ARG_OF_PERICENTER": 2.596, "MEAN_ANOMALY": 357.527, "EPHEMERIS_TYPE": 0, "CLASSIFICATION_TYPE": "U", "NORAD_CAT_ID": 38338, "ELEMENT_SET_NO": 999, "REV_AT_EPOCH": 72301, "BSTAR": 0.0002405777, "MEAN_MOTION_DOT": 1.15e-05, "MEAN_MOTION_DDOT": 0}, "tle": {"line1": "1 38338U 12025B   25339.28164583  .00001150  00000+0  24058-3 0  9992", "line2": "2 38338  98.3311 293.8153 0005889   2.5960 357.5270 14.61697087723016"}}, "geometry": {"type": "Point", "coordinates": [121.8466933569483, 41.77738919033464]}}, {"type": "Feature", "properties": {"norad_id": 38709, "name": "EXACTVIEW-1 (ADS-1B)", "group": "resource", "lat": -25.04148284128395, "lon": 92.25979294321776, "alt_km": 808.1982218061239, "timestamp": "2025-12-05T18:53:12.953700+00:00", "meta": {"OBJECT_NAME": "EXACTVIEW-1 (ADS-1B)", "OBJECT_ID": "2012-039C", "EPOCH": "2025-12-05T07:12:31.047840", "MEAN_MOTION": 14.24903181, "ECCENTRICITY": 0.00110578, "INCLINATION": 98.9636, "RA_OF_ASC_NODE": 87.5344, "ARG_OF_PERICENTER": 15.4762, "MEAN_ANOMALY": 344.6753, "EPHEMERIS_TYPE": 0, "CLASSIFICATION_TYPE": "U", "NORAD_CAT_ID": 38709, "ELEMENT_SET_NO": 999, "REV_AT_EPOCH": 69509, "BSTAR": 0.00015884545, "MEAN_MOTION_DOT": 3.25e-06, "MEAN_MOTION_DDOT": 0}, "tle": {"line1": "1 38709U 12039C   25339.30035935  .00000325  00000+0  15885-3 0  9991", "line2": "2 38709  98.9636  87.5344 0011057  15.4762 344.6753 14.24903181695094"}}, "geometry": {"type": "Point", "coordinates": [92.25979294321776, -25.04148284128395]}}]}